GLOBALSTAR M084 [+]     
1 38040U 11080A   23328.49421635 -.00000076  00000+0  15315-3 0  9998
2 38040  52.0027 345.8732 0000189 150.4951  13.5612 12.62267999550593
GLOBALSTAR M080 [+]     
1 38041U 11080B   23328.46811455 -.00000078  00000+0  14241-3 0  9998
2 38041  52.0080 347.3588 0000387 161.8985   3.4993 12.62266456550713
GLOBALSTAR M082 [+]     
1 38042U 11080C   23328.40171279 -.00000094  00000+0  55218-4 0  9994
2 38042  52.0085 302.9447 0001053  34.4433 130.3368 12.62268193551418
GLOBALSTAR M092 [+]     
1 38043U 11080D   23328.68664854 -.00000092  00000+0  67465-4 0  9996
2 38043  52.0105  32.4213 0000316 174.1711 326.5329 12.62262765549906
GLOBALSTAR M090 [+]     
1 38044U 11080E   23328.94956722 -.00000093  00000+0  57460-4 0  9999
2 38044  51.9893 295.8195 0000792  50.6388 325.6022 12.62263777551603
GLOBALSTAR M086 [+]     
1 38045U 11080F   23328.37525076 -.00000083  00000+0  11471-3 0  9991
2 38045  51.9905 298.0767 0001189 108.5603  55.6281 12.62264725551478
GLOBALSTAR M097 [+]     
1 39072U 13005A   23328.84065761 -.00000078  00000+0  14491-3 0  9992
2 39072  52.0032 210.6271 0001294  76.0902 284.0109 12.62272792498784
GLOBALSTAR M093 [+]     
1 39073U 13005B   23328.81419652 -.00000074  00000+0  16439-3 0  9992
2 39073  51.9794 204.9238 0001545  80.3730 279.7311 12.62269184498735
